#dP2020  4 11  0  0  0.00000000      97 __u+U IGS14 FIT  IAC
## 2100 518400.00000000   900.00000000 58950 0.0000000000000
+  121   C01C02C03C05C06C07C08C09C10C11C12C13C14C16C19C20C21
+        C22C23C24C25C26C27C28C29C30C32C33C34C35C36C37C38C39
+        C40C43C44C45C46E01E02E03E04E05E07E08E09E11E12E13E14
+        E15E18E19E21E24E25E26E27E30E31E33E36G01G02G03G04G05
+        G06G07G08G09G10G11G12G13G14G15G16G17G18G19G20G21G22
+        G23G24G25G26G27G28G29G30G31G32J01J02J03J07R01R02R03
+        R04R05R07R08R09R11R12R13R14R15R16R17R18R19R20R21R22
+        R23R26  0  0  0  0  0  0  0  0  0  0  0  0  0  0  0
++         0  0  0  0  0  0  0  0  0  0  0  0  0  0  0  0  0
++         0  0  0  0  0  0  0  0  0  0  0  0  0  0  0  0  0
++         0  0  0  0  0  0  0  0  0  0  0  0  0  0  0  0  0
++         0  0  0  0  0  0  0  0  0  0  0  0  0  0  0  0  0
++         0  0  0  0  0  0  0  0  0  0  0  0  0  0  0  0  0
++         0  0  0  0  0  0  0  0  0  0  0  0  0  0  0  0  0
++         0  0  0  0  0  0  0  0  0  0  0  0  0  0  0  0  0
++         0  0  0  0  0  0  0  0  0  0  0  0  0  0  0  0  0
%c M  cc GPS ccc cccc cccc cccc cccc ccccc ccccc ccccc ccccc
%c cc cc ccc ccc cccc cccc cccc cccc ccccc ccccc ccccc ccccc
%f  1.2500000  1.025000000  0.00000000000  0.000000000000000
%f  0.0000000  0.000000000  0.00000000000  0.000000000000000
%i    0    0    0    0      0      0      0      0         0
%i    0    0    0    0      0      0      0      0         0
/* INFORMATION & ANALYSIS CENTER (IAC)            FINAL DATA
/* S/V CLOCKS ARE ALIGNED TO GNSS TIME                      
/* G:C1WC2W R:C1PC2P E:C1XC5X C:C2IC6I J:C1CC2S             
/* PCV:IGS14_2101 OL/AL:FES2004  NONE     YN ORB:CoN CLK:CoN
*  2020 04 11  4 15  0.00000000
PC01 -34340.014337  24492.960030    774.937451   -615.779473
PC02   4380.412682  41900.325694  -1281.538078    423.954441
PC03 -14639.006712  39511.301442   -735.997022    344.779983
PC05  21910.275991  35984.989335   -952.585551 999999.999999
PC06 -14532.380550  37760.142127 -10652.927337    243.700679
PC07 -11300.401581  24074.673458  32941.192288    872.437477
PC08 -26206.239858  24495.478992 -22321.208114   -195.968480
PC09  -5702.634835  41329.235228   4743.142466    464.289537
PC10   4026.602885  30787.478910  28862.574588   -844.779123
PC11  13326.699739   7505.460773 -23283.797534   -295.791129
PC12    343.297300  23056.076526 -15698.728794    347.872017
PC13 -11411.670776  26383.458091 -30843.537807    374.794786
PC14  20213.390637  16299.549648  10331.695560    286.090035
PC16 -11880.872680  39616.108724  -7569.751281   -685.237761
PC19 -20298.785383  -7786.761268 -17453.988399    378.751186
PC20 -17216.773439 -21821.788822  -2263.385534   -915.512957
PC21   3761.299149  23371.051138 -14771.603055   -271.564865
PC22 -11630.402306  11094.875285 -22802.694500   -839.442744
PC23  22257.099925 -10795.462277 -12917.506457   -916.853397
PC24  16396.490489  12300.309938  18916.759395   -862.851357
PC25  27622.216457     72.584562   3896.603655   -578.986961
PC26  -2991.493133  16284.889249  22460.298529    639.683592
PC27   6866.783284 -25919.168814   7762.458038    310.829889
PC28  17277.435330 -19592.502808  -9810.788661    301.830051
PC29 -17503.363795   2517.782620  21580.197977    213.279449
PC30  -7992.864424 -17025.537499  20622.293024    300.291378
PC32  -3890.600866 -23343.147560  14800.960293   -922.955309
PC33  20392.909024   7730.296126  17433.185571   -874.107532
PC34   8314.951570  16643.248763 -20795.796576   -622.871918
PC35 -16673.700164  20022.099371   9939.262430   -897.180662
PC36 -27586.377867   -850.722067  -4093.829207   -821.801238
PC37   4063.166778 -16183.794217 -22351.622598   -846.126145
PC38 -21485.482789  26836.004558 -24473.967951     71.691808
PC39  -8599.922781  40666.125865  -6775.763446 999999.999999
PC40   1496.948267  27412.374242  32052.716006     33.824116
PC43  17566.480129  -2114.127521 -21589.188504   -144.936650
PC44  -6084.369768  26131.258312  -7606.173858   -165.607188
PC45 -22268.626226  10785.370263  12923.417144    106.333481
PC46 -16881.080110 -11946.442627 -18747.223136 999999.999999
PE01   4700.122096 -15751.561648 -24621.114469   -833.460393
PE02  -4626.795564  15771.141773  24611.104195    125.624697
PE03  -3396.642454  27178.058745 -11238.536099   -286.621192
PE04  -9696.293345 -27081.923237  -6970.490433   -503.129887
PE05 -14662.921327  11322.571738 -23080.749939   -389.639670
PE07  17285.797460  11028.171107  21361.647286   -366.555134
PE08   9965.136089  26934.586995   7203.235270   6194.042742
PE09 -17233.658848 -10823.583586 -21480.924326   6096.827361
PE11 -20755.977528   -589.338216  21084.030604   2206.717537
PE12  -4516.520249 -16862.238325  23914.829254   5860.046093
PE13  20594.633346    653.976165 -21247.192703    399.970551
PE14  15518.986490  17529.577171 -22200.493985   -973.310650
PE15   4752.644560  16637.114972 -24004.526444    870.884331
PE18  -8627.886084 -17182.398481  14147.498283  -1071.806196
PE19   4729.434688 -26150.153033  13047.920167   -407.253798
PE21  22942.231696  -4495.788914 -18160.096160   -592.856875
PE24 -27920.914074  -9834.830257    785.457433   5513.556928
PE25 -23028.684926   4400.939348  18071.153239   -508.872356
PE26  24411.094434 -15766.979645  -5633.368438   3316.029532
PE27  27991.651388   9563.366169   -968.238969    243.393012
PE30  16228.061762  18097.582915  16867.510935   3995.641571
PE31 -16584.717641 -17941.404895 -16710.795986   -472.246184
PE33  13894.954748 -22870.338005  12676.010651   -468.540796
PE36 -24352.236325  15698.133443   6037.626635    574.488015
PG01  -4484.145807  16768.009929 -20214.068008   -354.265767
PG02  21832.177686 -14697.104013   3929.011274   -437.439965
PG03   6947.779148  19452.094631 -16807.864461   -142.368143
PG04    168.816979  26010.374082   5312.540471    -74.560743
PG05  13752.672594  -8656.911123  20907.282251    -10.654775
PG06  24954.696050  -6286.868204  -6618.364417   -250.226868
PG07  14413.202229   9647.716222  20535.132613   -255.976202
PG08  -6585.413729  24802.209074   6326.582024    -30.226752
PG09   8512.963877  20510.922348  14507.559685   -195.348671
PG10 -23348.153004 -10374.600815  -7600.233998   -306.462246
PG11  -9931.410310  23238.662216  -9140.869681   -308.571013
PG12  -4062.512298 -19307.602711 -18096.941073    130.594040
PG13  13012.690451 -19788.786095  11812.491600      1.172434
PG14 -15544.123842   6350.876344 -20191.511616    -20.370459
PG15   3895.879288 -25486.551511   5168.598129   -238.803664
PG16 -13429.015349   7475.508818  21503.589344   -145.242327
PG17  13886.582163   4626.375081 -21745.925019    246.818082
PG18  -9685.371638 -12184.060812  21530.111139    152.054837
PG19  15505.088852  -4173.273355 -21453.969111   -173.675489
PG20 -21614.969794 -15087.595690   4012.077740    527.820631
PG21 -14736.244904  -9024.241367  20889.293258    -15.770822
PG22  -1630.668672  16753.526096 -20346.170322   -784.888715
PG23   4810.388034  24329.425426   9341.807660   -123.024237
PG24   5500.262230 -18229.535761 -18565.454084    -11.529042
PG25 -14593.828762 -19765.146083 -10666.418615     -3.909249
PG26 -20996.471134     -2.907318  16360.739288    185.200948
PG27 -12188.018705  17654.247025  15298.293013   -263.601992
PG28  21976.940053  11498.724313  -8709.969457    726.274262
PG29  -4863.044577 -22547.741824  13110.292079    -78.204878
PG30  22639.393130   1871.078287  13964.619044   -195.730230
PG31 -25463.312759   6959.180617  -4696.373703    -35.258046
PG32 -14988.180509  -3211.602215 -21620.170111    256.979090
PJ01 -19214.850751  23249.676113 -24873.194861   -325.962551
PJ02 -29314.872772  21967.484521  25717.848497     -2.324837
PJ03 -30481.486878  26306.654637  17524.604780     -1.880510
PJ07 -25400.235657  33642.710292    -37.713576      0.016592
PR01 -14767.377888 -13629.609073 -15694.549230     59.846665
PR02  -8610.404534   7253.739530 -22841.022468    421.228175
PR03   2002.704381  21052.145177 -14183.681248     13.095464
PR04  11419.945930  22679.378924   2453.090046     45.161651
PR05  14252.126400  11530.991617  17740.755829     48.421617
PR07  -2319.968815 -21367.318059  13809.175509    -35.331804
PR08 -11335.916750 -22736.962542  -2302.021721    -51.556431
PR09  18543.249511  -6237.658270 -16396.594596    126.637228
PR11 -14826.613398 -10257.875092 -18015.227962    -19.783111
PR12 -24915.756278  -4210.899730  -3558.148094    121.572464
PR13 -21039.947583   4596.381859  13648.269700    -37.238149
PR14  -4755.645961  10494.384244  22762.848852     50.045355
PR15  14019.007852  10367.413101  18631.583183    106.307982
PR16  25010.386334   3518.580348   3039.542373     -2.718359
PR17 -11450.726606  21517.391372  -7562.769516    316.391479
PR18    402.405949  15067.086561 -20544.652958     31.618404
PR19  11737.747891   1279.738433 -22609.796147    -88.112288
PR20  17644.020710 -15285.526333 -10333.442298   -408.852693
PR21  10957.745857 -21408.984616   8474.258391   -117.243921
PR22  -2209.972172 -13303.604505  21686.804019      4.055738
PR23 -14949.085693   5105.086213  20018.752195    298.414128
PR26  17119.338193 -12423.217914 -14227.731632   -399.951080
EOF
